{
    "links": {
        "self": "http://www.neowsapp.com/rest/v1/neo/3467224?api_key=iIulBulltgU6a56xZRHN4H3l9WmuAYTsLGpBGhQ2"
    },
    "id": "3467224",
    "neo_reference_id": "3467224",
    "name": "(2009 SL1)",
    "designation": "2009 SL1",
    "nasa_jpl_url": "http://ssd.jpl.nasa.gov/sbdb.cgi?sstr=3467224",
    "absolute_magnitude_h": 24.3,
    "estimated_diameter": {
        "kilometers": {
            "estimated_diameter_min": 0.0366906138,
            "estimated_diameter_max": 0.0820427065
        },
        "meters": {
            "estimated_diameter_min": 36.6906137531,
            "estimated_diameter_max": 82.0427064882
        },
        "miles": {
            "estimated_diameter_min": 0.0227984834,
            "estimated_diameter_max": 0.0509789586
        },
        "feet": {
            "estimated_diameter_min": 120.3760332259,
            "estimated_diameter_max": 269.1689931548
        }
    },
    "is_potentially_hazardous_asteroid": false,
    "close_approach_data": [
        {
            "close_approach_date": "2009-08-29",
            "close_approach_date_full": "2009-Aug-29 11:45",
            "epoch_date_close_approach": 1251546300000,
            "relative_velocity": {
                "kilometers_per_second": "9.2324498921",
                "kilometers_per_hour": "33236.8196117367",
                "miles_per_hour": "20652.0671637483"
            },
            "miss_distance": {
                "astronomical": "0.0739572373",
                "lunar": "28.7693653097",
                "kilometers": "11063845.171164551",
                "miles": "6874754.6027547638"
            },
            "orbiting_body": "Earth"
        }
    ],
    "orbital_data": {
        "orbit_id": "6",
        "orbit_determination_date": "2017-04-06 08:59:59",
        "first_observation_date": "2009-09-18",
        "last_observation_date": "2009-09-18",
        "data_arc_in_days": null,
        "observations_used": 14,
        "orbit_uncertainty": "9",
        "minimum_orbit_intersection": ".0709505",
        "jupiter_tisserand_invariant": "3.828",
        "epoch_osculation": "2455092.5",
        "eccentricity": ".4587451334628248",
        "semi_major_axis": "1.876543467211553",
        "inclination": "8.570329996386032",
        "ascending_node_longitude": "174.5395325896967",
        "orbital_period": "938.9368194371597",
        "perihelion_distance": "1.015688283896797",
        "perihelion_argument": "130.8021645774761",
        "aphelion_distance": "2.737398650526309",
        "perihelion_time": "2455046.863981051550",
        "mean_anomaly": "17.49741460910038",
        "mean_motion": ".3834123793502953",
        "equinox": "J2000",
        "orbit_class": {
            "orbit_class_type": "APO",
            "orbit_class_description": "Near-Earth asteroid orbits which cross the Earth’s orbit similar to that of 1862 Apollo",
            "orbit_class_range": "a (semi-major axis) > 1.0 AU; q (perihelion) < 1.017 AU"
        }
    },
    "is_sentry_object": false
}